GLOBALSTAR M068 [P]     
1 32266U 07048D   15119.39062163 -.00000102  00000-0  10705-4 0  9996
2 32266  51.9892  64.5335 0000432 156.2334 352.9496 12.62663381350187
GLOBALSTAR M079 [+]     
1 37188U 10054A   15119.79636796 -.00000103  00000-0  32283-5 0  9995
2 37188  52.0041 247.3744 0000503 100.7879  17.2968 12.62264412209691
GLOBALSTAR M074 [+]     
1 37189U 10054B   15119.92363362 -.00000102  00000-0  11076-4 0  9992
2 37189  52.0018 246.9790 0000401 109.7215  46.5562 12.62270523209709
GLOBALSTAR M076 [+]     
1 37190U 10054C   15119.86125319 -.00000109  00000-0 -28922-4 0  9991
2 37190  52.0030 246.9519 0000547 344.6355 157.2997 12.62270019209702
GLOBALSTAR M077 [+]     
1 37191U 10054D   15118.50685278 -.00000097  00000-0  38943-4 0  9996
2 37191  52.0072 207.0167 0000606 137.7995 293.9479 12.62267626210281
GLOBALSTAR M075 [+]     
1 37192U 10054E   15120.50440204 -.00000092  00000-0  65378-4 0  9995
2 37192  51.9950 289.4329 0001106 120.2629 280.6793 12.62266642209025
GLOBALSTAR M073 [+]     
1 37193U 10054F   15120.50589631 -.00000098  00000-0  31794-4 0  9995
2 37193  52.0055 200.4162 0000412 109.9467 319.3870 12.62267234210537
GLOBALSTAR M083 [+]     
1 37739U 11033A   15119.66048010 -.00000083  00000-0  11542-3 0  9997
2 37739  51.9839 156.7323 0000626  73.2783  79.5852 12.62269506179751
GLOBALSTAR M088 [+]     
1 37740U 11033B   15120.40829829 -.00000106  00000-0 -10765-4 0  9992
2 37740  51.9737  62.9603 0000543 100.6647  55.2501 12.62270629175320
GLOBALSTAR M091 [+]     
1 37741U 11033C   15120.20019122 -.00000099  00000-0  26180-4 0  9996
2 37741  52.0019  20.6084 0000890  65.5326 100.1160 12.62272294176050
GLOBALSTAR M085 [+]     
1 37742U 11033D   15120.10334110 -.00000087  00000-0  91958-4 0  9995
2 37742  51.9879 335.2170 0000996  90.0491  51.5153 12.62267734176781
GLOBALSTAR M081 [+]     
1 37743U 11033E   15119.17605119 -.00000083  00000-0  11659-3 0  9996
2 37743  51.9970 338.5052 0000547 118.7617  36.9885 12.62269367176704
GLOBALSTAR M089 [+]     
1 37744U 11033F   15120.54413892 -.00000099  00000-0  25312-4 0  9994
2 37744  51.9934 289.2996 0000258  81.0814 320.5620 12.62267161177591
GLOBALSTAR M084 [+]     
1 38040U 11080A   15120.17079780 -.00000077  00000-0  15148-3 0  9990
2 38040  51.9988 155.8528 0000213 110.5811 291.9699 12.62282429155558
GLOBALSTAR M080 [+]     
1 38041U 11080B   15119.68146348 -.00000082  00000-0  11887-3 0  9992
2 38041  52.0040 157.5569 0000420  31.3992 125.5871 12.62265367155471
GLOBALSTAR M082 [+]     
1 38042U 11080C   15120.16645101 -.00000089  00000-0  84293-4 0  9998
2 38042  52.0056 111.2442 0000619  66.5803  12.0603 12.62265535156276
GLOBALSTAR M092 [+]     
1 38043U 11080D   15120.53275275 -.00000091  00000-0  69123-4 0  9999
2 38043  52.0081 200.2048 0000637 134.4967 327.1082 12.62288813154815
GLOBALSTAR M090 [+]     
1 38044U 11080E   15119.48733382 -.00000092  00000-0  65231-4 0  9997
2 38044  51.9865 111.8409 0000535  41.6486 100.3335 12.62264731156170
GLOBALSTAR M086 [+]     
1 38045U 11080F   15120.14622912 -.00000095  00000-0  48344-4 0  9998
2 38045  51.9876 110.2009 0000509  46.0599  31.1646 12.62265622156263
GLOBALSTAR M097 [+]     
1 39072U 13005A   15119.27337808 -.00000099  00000-0  26067-4 0  9999
2 39072  52.0068  23.5321 0000673  42.8241 317.2678 12.62268268103389
GLOBALSTAR M093 [+]     
1 39073U 13005B   15120.18356571 -.00000108  00000-0 -24696-4 0  9998
2 39073  51.9830  19.9100 0000362 336.9596  23.1254 12.62264296103508
GLOBALSTAR M094 [+]     
1 39074U 13005C   15119.80259851 -.00000086  00000-0  10043-3 0  9993
2 39074  51.9960 291.8429 0000739 100.6613 259.4337 12.62267116104952
GLOBALSTAR M096 [+]     
1 39075U 13005D   15119.79518993 -.00000089  00000-0  81166-4 0  9995
2 39075  52.0086 337.3483 0001899 100.0423 260.0659 12.62269783104206
GLOBALSTAR M078 [+]     
1 39076U 13005E   15120.65146287 -.00000013  00000-0  10000-3 0  9991
2 39076  51.9882  63.7018 0000611 311.7168  48.4084 12.62274910102803
GLOBALSTAR M095 [+]     
1 39077U 13005F   15120.19596219 -.00000117  00000-0 -75375-4 0  9998
2 39077  51.9804  64.7565 0000819  66.3403 293.7549 12.62265253102756
